SL-16 R/B               
1 25407U 98045B   26086.58456622 -.00000255  00000+0 -10451-3 0  9991
2 25407  71.0104 143.9442 0007921 340.2276  19.8539 14.16194394429634
ISS (ZARYA)             
1 25544U 98067A   26086.84204458  .00011920  00000+0  22728-3 0  9993
2 25544  51.6344 342.6225 0006212 240.1567 119.8804 15.48591753559148
CZ-4B R/B               
1 25732U 99025C   26086.88896243  .00000050  00000+0  44995-4 0  9993
2 25732  98.6589 130.7365 0036034 293.1656 240.4836 14.18268789390743
OKEAN-O                 
1 25860U 99039A   26086.90200830  .00000647  00000+0  91631-4 0  9995
2 25860  97.9404 146.6050 0000872  90.7564 269.3748 14.80363585437080
SL-16 R/B               
1 25861U 99039B   26086.72970164  .00000519  00000+0  72532-4 0  9997
2 25861  97.9927 145.7960 0014465 193.7725 166.3095 14.81755114439534
DELTA 2 R/B             
1 25876U 99041E   26086.84748272  .00000828  00000+0  17275-3 0  9997
2 25876  51.7606 228.7451 0502650  41.9822 321.8520 14.11877516365598
HELIOS 1B               
1 25977U 99064A   26086.73880051  .00001572  00000+0  17865-3 0  9996
2 25977  98.1674 349.5110 0001880  49.7918 310.3462 14.87765219687948
TERRA                   
1 25994U 99068A   26086.92938241  .00000409  00000+0  92429-4 0  9993
2 25994  97.9555 139.6639 0003549 113.4686 291.1000 14.61033370397749
SL-16 R/B               
1 26070U 00006B   26086.67532000  .00000314  00000+0  18358-3 0  9991
2 26070  71.0018  60.0158 0015801 161.6699 198.4996 14.15826378351108
TITAN 4B R/B            
1 26474U 00047B   26086.85018491  .00003708  00000+0  23350-3 0  9995
2 26474  67.9913 349.4392 0039809  14.1332 346.0921 15.09727624395653
ENVISAT                 
1 27386U 02009A   26086.88994567  .00000122  00000+0  53428-4 0  9995
2 27386  98.3756  40.0572 0001214  81.5484 294.3688 14.39043112261795
IDEFIX & ARIANE 42P R/B 
1 27422U 02021B   26086.81481534  .00000274  00000+0  12051-3 0  9992
2 27422  98.5890  25.2067 0012553 130.2966 229.9317 14.31038046246615
